JY1SAT (JO-97)          
1 43803U 18099AX  26068.68634132  .00017774  00000+0  60804-3 0  9996
2 43803  97.4249 131.3625 0004723 256.6795 103.3919 15.30302628398390
STARLINK-32160          
1 60261U 24131G   26068.35627362 -.00003200  00000+0 -95981-4 0  9994
2 60261  53.1607  54.2509 0001320  84.7450 275.3702 15.30196385 91713
